     2.10           G: GLONASS NAV DATA                     RINEX VERSION / TYPE
teqc  2015Jun23                         20210610 02:25:49UTCPGM / RUN BY / DATE
Linux 2.4.21-27.ELsmp|Opteron|gcc -static|Linux x86_64|=+   COMMENT
  2021     5    17    8.847564458847D-09                    CORR TO SYSTEM TIME
                                                            END OF HEADER
 8 21  5 18  9 15  0.0-5.903746932745D-05 0.000000000000D+00 3.240000000000D+04
   -1.613309667969D+04 1.040388107300D+00-0.000000000000D+00 0.000000000000D+00
    1.472652734375D+04-1.477709770203D+00 2.793967723846D-09 6.000000000000D+00
    1.324797167969D+04 2.921174049377D+00 0.000000000000D+00 0.000000000000D+00
 1 21  5 18  9 15  0.0 7.963087409735D-05 0.000000000000D+00 3.240000000000D+04
   -1.202949902344D+04 3.598403930664D-02-9.313225746155D-10 0.000000000000D+00
    2.244683935547D+04 2.229080200195D-01 1.862645149231D-09 1.000000000000D+00
   -1.278583007812D+03 3.556371688843D+00 1.862645149231D-09 0.000000000000D+00
12 21  5 18  9 15  0.0 2.298699691892D-04 2.728484105319D-12 3.240000000000D+04
    9.080864257812D+02-1.091774940491D+00-0.000000000000D+00 0.000000000000D+00
    1.851859765625D+04-2.141298294067D+00-0.000000000000D+00-1.000000000000D+00
   -1.750296777344D+04-2.317085266113D+00 2.793967723846D-09 0.000000000000D+00
13 21  5 18  9 15  0.0-5.491264164448D-05-0.000000000000D+00 3.240000000000D+04
    1.174909179688D+04-2.605628967285D-02-9.313225746155D-10 0.000000000000D+00
    2.251741259766D+04-3.573017120361D-01 9.313225746155D-10-2.000000000000D+00
   -2.369744628906D+03-3.548926353455D+00 1.862645149231D-09 0.000000000000D+00
14 21  5 18  9 15  0.0 6.439071148634D-05 0.000000000000D+00 3.375000000000D+04
    1.582427539062D+04 1.108830451965D+00-9.313225746155D-10 0.000000000000D+00
    1.319595117188D+04 1.735799789429D+00 1.862645149231D-09-7.000000000000D+00
    1.503662060547D+04-2.693499565125D+00-0.000000000000D+00 0.000000000000D+00
 2 21  5 18  9 45  0.0 4.790462553501D-04 9.094947017729D-13 3.420000000000D+04
   -1.296887695312D+03-7.013063430786D-01-0.000000000000D+00 0.000000000000D+00
    2.061875097656D+04 1.936117172241D+00 0.000000000000D+00-4.000000000000D+00
   -1.495453466797D+04 2.716375350952D+00 2.793967723846D-09 0.000000000000D+00
 8 21  5 18  9 45  0.0-5.903653800488D-05 0.000000000000D+00 3.420000000000D+04
   -1.420210058594D+04 1.062561988831D+00-0.000000000000D+00 0.000000000000D+00
    1.140091601562D+04-2.199704170227D+00 2.793967723846D-09 6.000000000000D+00
    1.792886669922D+04 2.246355056763D+00-0.000000000000D+00 0.000000000000D+00
 1 21  5 18  9 45  0.0 7.963180541992D-05 0.000000000000D+00 3.420000000000D+04
   -1.161231542969D+04 3.893642425537D-01-0.000000000000D+00 0.000000000000D+00
    2.212589501953D+04-5.931768417358D-01 2.793967723846D-09 1.000000000000D+00
    5.089577148438D+03 3.473366737366D+00 1.862645149231D-09 0.000000000000D+00
12 21  5 18  9 45  0.0 2.298746258020D-04 2.728484105319D-12 3.420000000000D+04
   -1.588896484375D+03-1.677040100098D+00-0.000000000000D+00 0.000000000000D+00
    1.444723583984D+04-2.333888053894D+00-9.313225746155D-10-1.000000000000D+00
   -2.094215234375D+04-1.479299545288D+00 2.793967723846D-09 0.000000000000D+00
13 21  5 18  9 45  0.0-5.491357296705D-05-0.000000000000D+00 3.420000000000D+04
    1.120897021484D+04-6.000080108643D-01-0.000000000000D+00 0.000000000000D+00
    2.125028955078D+04-1.018216133118D+00 0.000000000000D+00-2.000000000000D+00
   -8.583678710938D+03-3.310638427734D+00 2.793967723846D-09 0.000000000000D+00
14 21  5 18  9 45  0.0 6.439164280891D-05 0.000000000000D+00 3.420000000000D+04
    1.767213476562D+04 9.005899429321D-01-9.313225746155D-10 0.000000000000D+00
    1.564168164062D+04 9.770116806030D-01 9.313225746155D-10-7.000000000000D+00
    9.669543945312D+03-3.231227874756D+00 9.313225746155D-10 0.000000000000D+00
23 21  5 18  9 45  0.0 3.857519477606D-04 1.818989403546D-12 3.501000000000D+04
   -1.015259912109D+04-2.847097396851D+00-0.000000000000D+00 0.000000000000D+00
    1.044498779297D+04 4.039154052734D-01 2.793967723846D-09 3.000000000000D+00
    2.092889404297D+04-1.581162452698D+00-0.000000000000D+00 0.000000000000D+00
 2 21  5 18 10 15  0.0 4.790490493178D-04 9.094947017729D-13 3.600000000000D+04
   -2.097266113281D+03-2.111663818359D-01-0.000000000000D+00 0.000000000000D+00
    2.357107373047D+04 1.306398391724D+00 9.313225746155D-10-4.000000000000D+00
   -9.550100585938D+03 3.249426841736D+00 2.793967723846D-09 0.000000000000D+00
12 21  5 18 10 15  0.0 2.298802137375D-04 2.728484105319D-12 3.600000000000D+04
   -5.075876953125D+03-2.173694610596D+00-0.000000000000D+00 0.000000000000D+00
    1.028810253906D+04-2.242173194885D+00-9.313225746155D-10-1.000000000000D+00
   -2.275923779297D+04-5.264739990234D-01 1.862645149231D-09 0.000000000000D+00
 1 21  5 18 10 15  0.0 7.963273674250D-05 0.000000000000D+00 3.600000000000D+04
   -1.077422851562D+04 5.001821517944D-01 0.000000000000D+00 0.000000000000D+00
    2.029627539062D+04-1.434246063232D+00 3.725290298462D-09 1.000000000000D+00
    1.106386816406D+04 3.121616363525D+00 9.313225746155D-10 0.000000000000D+00
13 21  5 18 10 15  0.0-5.491450428963D-05-0.000000000000D+00 3.600000000000D+04
    9.523923828125D+03-1.281766891479D+00-0.000000000000D+00 0.000000000000D+00
    1.898940039062D+04-1.451186180115D+00 0.000000000000D+00-2.000000000000D+00
   -1.413423779297D+04-2.816672325134D+00 2.793967723846D-09 0.000000000000D+00
14 21  5 18 10 15  0.0 6.439257413149D-05 0.000000000000D+00 3.600000000000D+04
    1.891456542969D+04 4.407911300659D-01-0.000000000000D+00 0.000000000000D+00
    1.673054101562D+04 2.468347549438D-01 9.313225746155D-10-7.000000000000D+00
    3.554457031250D+03-3.519178390503D+00 9.313225746155D-10 0.000000000000D+00
23 21  5 18 10 15  0.0 3.857566043735D-04 1.818989403546D-12 3.600000000000D+04
   -1.479658984375D+04-2.273190498352D+00 0.000000000000D+00 0.000000000000D+00
    1.147853613281D+04 7.134819030762D-01 2.793967723846D-09 3.000000000000D+00
    1.730981250000D+04-2.413877487183D+00-0.000000000000D+00 0.000000000000D+00
 3 21  5 18 10 15  0.0 3.616604954004D-05 0.000000000000D+00 3.693000000000D+04
    7.358024902344D+03-7.436017990112D-01-0.000000000000D+00 0.000000000000D+00
    1.157270654297D+04 2.856383323669D+00-9.313225746155D-10 5.000000000000D+00
   -2.147086865234D+04 1.277243614197D+00 2.793967723846D-09 0.000000000000D+00
 2 21  5 18 10 45  0.0 4.790518432856D-04 9.094947017729D-13 3.780000000000D+04
   -2.164486816406D+03 1.011390686035D-01-0.000000000000D+00 0.000000000000D+00
    2.521113574219D+04 4.932632446289D-01 1.862645149231D-09-4.000000000000D+00
   -3.407956542969D+03 3.530873298645D+00 2.793967723846D-09 0.000000000000D+00
13 21  5 18 10 45  0.0-5.491543561220D-05-0.000000000000D+00 3.780000000000D+04
    6.593871582031D+03-1.964596748352D+00-0.000000000000D+00 0.000000000000D+00
    1.618799218750D+04-1.615737915039D+00-0.000000000000D+00-2.000000000000D+00
   -1.859298730469D+04-2.105416297913D+00 2.793967723846D-09 0.000000000000D+00
 1 21  5 18 10 45  0.0 7.963366806507D-05 0.000000000000D+00 3.780000000000D+04
   -9.956990234375D+03 3.702611923218D-01 0.000000000000D+00 0.000000000000D+00
    1.701678320312D+04-2.185427665710D+00 2.793967723846D-09 1.000000000000D+00
    1.618223095703D+04 2.528553009033D+00 0.000000000000D+00 0.000000000000D+00
 3 21  5 18 10 45  0.0 3.616604954004D-05 0.000000000000D+00 3.780000000000D+04
    6.460610351562D+03-2.634973526001D-01-0.000000000000D+00 0.000000000000D+00
    1.644812500000D+04 2.512310981750D+00-0.000000000000D+00 5.000000000000D+00
   -1.836903173828D+04 2.146599769592D+00 2.793967723846D-09 0.000000000000D+00
14 21  5 18 10 45  0.0 6.439257413149D-05 0.000000000000D+00 3.780000000000D+04
    1.913684863281D+04-2.213220596313D-01-0.000000000000D+00 0.000000000000D+00
    1.661053125000D+04-3.504810333252D-01 9.313225746155D-10-7.000000000000D+00
   -2.835688476562D+03-3.534825325012D+00 1.862645149231D-09 0.000000000000D+00
23 21  5 18 10 45  0.0 3.857612609863D-04 1.818989403546D-12 3.780000000000D+04
   -1.822122509766D+04-1.508788108826D+00 9.313225746155D-10 0.000000000000D+00
    1.288081347656D+04 8.031864166260D-01 1.862645149231D-09 3.000000000000D+00
    1.235138964844D+04-3.059657096863D+00-0.000000000000D+00 0.000000000000D+00
24 21  5 18 10 45  0.0 4.310719668865D-05 1.818989403546D-12 3.789000000000D+04
   -5.809511230469D+03-2.700250625610D+00 0.000000000000D+00 0.000000000000D+00
    1.282990527344D+04 1.091251373291D+00 2.793967723846D-09 2.000000000000D+00
    2.127647314453D+04-1.396816253662D+00-0.000000000000D+00 0.000000000000D+00
 2 21  5 18 11 15  0.0 4.790555685759D-04 1.818989403546D-12 3.960000000000D+04
   -1.872951660156D+03 1.819324493408D-01 0.000000000000D+00 0.000000000000D+00
    2.529849121094D+04-3.999834060669D-01 2.793967723846D-09-4.000000000000D+00
    2.997119140625D+03 3.539818763733D+00 1.862645149231D-09 0.000000000000D+00
13 21  5 18 11 15  0.0-5.491636693478D-05-0.000000000000D+00 3.960000000000D+04
    2.517881835938D+03-2.537049293518D+00-0.000000000000D+00 0.000000000000D+00
    1.333189746094D+04-1.516516685486D+00-9.313225746155D-10-2.000000000000D+00
   -2.161613623047D+04-1.231909751892D+00 2.793967723846D-09 0.000000000000D+00
 1 21  5 18 11 15  0.0 7.963459938765D-05 0.000000000000D+00 3.960000000000D+04
   -9.559316406250D+03 4.482936859131D-02 9.313225746155D-10 0.000000000000D+00
    1.254508935547D+04-2.743653297424D+00 2.793967723846D-09 1.000000000000D+00
    2.004921972656D+04 1.740262985229D+00-9.313225746155D-10 0.000000000000D+00
 3 21  5 18 11 15  0.0 3.616698086262D-05 0.000000000000D+00 3.960000000000D+04
    6.343420410156D+03 1.073265075684D-01-0.000000000000D+00 0.000000000000D+00
    2.045778857422D+04 1.904221534729D+00 0.000000000000D+00 5.000000000000D+00
   -1.384384716797D+04 2.848509788513D+00 2.793967723846D-09 0.000000000000D+00
